#cP2012 11 24  0  0  0.00000000     288 u+U   IGb08 FIT  TUM
## 1715 518400.00000000   300.00000000 56255 0.0000000000000
+    3   J01E11E12  0  0  0  0  0  0  0  0  0  0  0  0  0  0
+          0  0  0  0  0  0  0  0  0  0  0  0  0  0  0  0  0
+          0  0  0  0  0  0  0  0  0  0  0  0  0  0  0  0  0
+          0  0  0  0  0  0  0  0  0  0  0  0  0  0  0  0  0
+          0  0  0  0  0  0  0  0  0  0  0  0  0  0  0  0  0
++         2  1  1  0  0  0  0  0  0  0  0  0  0  0  0  0  0
++         0  0  0  0  0  0  0  0  0  0  0  0  0  0  0  0  0
++         0  0  0  0  0  0  0  0  0  0  0  0  0  0  0  0  0
++         0  0  0  0  0  0  0  0  0  0  0  0  0  0  0  0  0
++         0  0  0  0  0  0  0  0  0  0  0  0  0  0  0  0  0
%c E  cc GPS ccc cccc cccc cccc cccc ccccc ccccc ccccc ccccc
%c cc cc ccc ccc cccc cccc cccc cccc ccccc ccccc ccccc ccccc
%f  1.2500000  1.025000000  0.00000000000  0.000000000000000
%f  0.0000000  0.000000000  0.00000000000  0.000000000000000
%i    0    0    0    0      0      0      0      0         0
%i    0    0    0    0      0      0      0      0         0
/* Galileo+QZSS orbits for MGEX based on CONGO+MGEX data    
/* Technische Universitaet Muenchen (TUM)                   
/* Further information: www.iapg.bv.tum.de/mgex             
/* PCV:IGS08_1645 OL/AL:FES2004  NONE     YN ORB:CoN CLK:CoN
*  2012 11 24 10  0  0.00000000
PJ01 -27717.932854  31182.795909  11230.827831    351.470145
PE11  13869.110740 -14921.273819  21470.812786    758.443728
PE12  17160.480951   5112.974328  23569.890855    579.456563
*  2012 11 24 10  5  0.00000000
PJ01 -27613.994818  31380.818592  10675.647318    351.470092
PE11  13929.089619 -14271.838090  21869.688198    758.559789
PE12  17234.535900   5814.881092  23352.038981    579.482058
*  2012 11 24 10 10  0.00000000
PJ01 -27502.351659  31575.122602  10115.697378    351.470133
PE11  14005.099500 -13612.461799  22238.305726    758.675888
PE12  17323.523559   6507.960576  23101.888714    579.507549
*  2012 11 24 10 15  0.00000000
PJ01 -27383.115821  31765.315924   9551.207856    351.470084
PE11  14097.478021 -12944.450586  22576.155375    758.792011
PE12  17426.949065   7190.943110  22819.785631    579.533042
*  2012 11 24 10 20  0.00000000
PJ01 -27256.416292  31951.010026   8982.412631    351.470048
PE11  14206.490418 -12269.131102  22882.769712    758.908074
PE12  17544.249624   7862.591268  22506.119501    579.558558
*  2012 11 24 10 25  0.00000000
PJ01 -27122.398499  32131.820601   8409.549579    351.470031
PE11  14332.328453 -11587.846603  23157.724525    759.024071
PE12  17674.796524   8521.703923  22161.323743    579.584045
*  2012 11 24 10 30  0.00000000
PJ01 -26981.224184  32307.368296   7832.860552    351.470050
PE11  14475.109615 -10901.952518  23400.639403    759.140175
PE12  17817.897372   9167.120158  21785.874838    579.609546
*  2012 11 24 10 35  0.00000000
PJ01 -26833.071248  32477.279453   7252.591337    351.470003
PE11  14634.876579 -10212.811945  23611.178262    759.256198
PE12  17972.798568   9797.723059  21380.291665    579.635030
*  2012 11 24 10 40  0.00000000
PJ01 -26678.133559  32641.186838   6668.991622    351.470015
PE11  14811.596927  -9521.791144  23789.049813    759.372272
PE12  18138.687988  10412.443342  20945.134793    579.660565
*  2012 11 24 10 45  0.00000000
PJ01 -26516.620730  32798.730373   6082.314953    351.470051
PE11  15005.163139  -8830.255021  23934.007960    759.488350
PE12  18314.697881  11010.262814  20481.005709    579.686065
*  2012 11 24 10 50  0.00000000
PJ01 -26348.757864  32949.557862   5492.818687    351.469973
PE11  15215.392851  -8139.562594  24045.852143    759.604325
PE12  18499.907963  11590.217669  19988.545985    579.711558
*  2012 11 24 10 55  0.00000000
PJ01 -26174.785281  33093.325700   4900.763939    351.469967
PE11  15442.029371  -7451.062520  24124.427614    759.720364
PE12  18693.348694  12151.401584  19468.436402    579.737057
*  2012 11 24 11  0  0.00000000
PJ01 -25994.958180  33229.699599   4306.415525    351.470006
PE11  15684.742465  -6766.088621  24169.625652    759.836444
PE12  18894.004738  12692.968625  18921.396000    579.762547
*  2012 11 24 11  5  0.00000000
PJ01 -25809.546307  33358.355283   3710.041905    351.470006
PE11  15943.129399  -6085.955500  24181.383709    759.952520
PE12  19100.818584  13214.135928  18348.181102    579.788057
*  2012 11 24 11 10  0.00000000
PJ01 -25618.833576  33478.979174   3111.915105    351.469947
PE11  16216.716244  -5411.954183  24159.685504    760.068587
PE12  19312.694315  13714.186191  17749.584254    579.813563
*  2012 11 24 11 15  0.00000000
PJ01 -25423.117643  33591.269086   2512.310657    351.469957
PE11  16504.959422  -4745.347900  24104.561039    760.184591
PE12  19528.501521  14192.469899  17126.433146    579.839067
*  2012 11 24 11 20  0.00000000
PJ01 -25222.709481  33694.934880   1911.507511    351.469949
PE11  16807.247512  -4087.367906  24016.086560    760.300674
PE12  19747.079334  14648.407354  16479.589461    579.864572
*  2012 11 24 11 25  0.00000000
PJ01 -25017.932891  33789.699127   1309.787951    351.469893
PE11  17122.903287  -3439.209457  23894.384451    760.416743
PE12  19967.240571  15081.490429  15809.947688    579.890081
*  2012 11 24 11 30  0.00000000
PJ01 -24809.124015  33875.297733    707.437513    351.469910
PE11  17451.185986  -2802.027899  23739.623068    760.532801
PE12  20187.775975  15491.284102  15118.433890    579.915570
*  2012 11 24 11 35  0.00000000
PJ01 -24596.630788  33951.480573    104.744875    351.469920
PE11  17791.293819  -2176.934891  23552.016502    760.648785
PE12  20407.458543  15877.427714  14406.004419    579.941086
*  2012 11 24 11 40  0.00000000
PJ01 -24380.812386  34018.012079   -497.998233    351.469848
PE11  18142.366680  -1564.994792  23331.824287    760.764841
PE12  20625.047904  16239.635986  13673.644599    579.966583
*  2012 11 24 11 45  0.00000000
PJ01 -24162.038629  34074.671828  -1100.497152    351.469813
PE11  18503.489072   -967.221207  23079.351038    760.880880
PE12  20839.294768  16577.699763  12922.367361    579.992089
*  2012 11 24 11 50  0.00000000
PJ01 -23940.689364  34121.255095  -1702.454400    351.469828
PE11  18873.693226   -384.573719  22794.946035    760.996832
PE12  21048.945395  16891.486503  12153.211847    580.017603
*  2012 11 24 11 55  0.00000000
PJ01 -23717.153817  34157.573393  -2303.569804    351.469759
PE11  19251.962415    182.045201  22479.002735    761.112885
PE12  21252.746092  17180.940492  11367.241967    580.043076
*  2012 11 24 12  0  0.00000000
PJ01 -23491.829920  34183.454982  -2903.540620    351.469699
PE11  19637.234429    731.793069  22131.958232    761.228967
PE12  21449.447707  17446.082800  10565.544929    580.068583
*  2012 11 24 12  5  0.00000000
PJ01 -23265.123613  34198.745351  -3502.061693    351.469771
PE11  20028.405217   1263.890069  21754.292659    761.344996
PE12  21637.810112  17687.010969   9749.229750    580.094094
*  2012 11 24 12 10  0.00000000
PJ01 -23037.448119  34203.307680  -4098.825570    351.469738
PE11  20424.332708   1777.621503  21346.528503    761.460984
PE12  21816.606676  17903.898430   8919.425684    580.119608
*  2012 11 24 12 15  0.00000000
PJ01 -22809.223198  34197.023264  -4693.522678    351.469673
PE11  20823.840711   2272.340012  20909.229911    761.577072
PE12  21984.628662  18096.993666   8077.280702    580.145116
*  2012 11 24 12 20  0.00000000
PJ01 -22580.874380  34179.791910  -5285.841480    351.469754
PE11  21225.722989   2747.467579  20443.001889    761.693188
PE12  22140.689591  18266.619114   7223.959872    580.170603
*  2012 11 24 12 25  0.00000000
PJ01 -22352.832168  34151.532308  -5875.468632    351.469760
PE11  21628.747418   3202.497260  19948.489478    761.809209
PE12  22283.629525  18413.169797   6360.643763    580.196131
*  2012 11 24 12 30  0.00000000
PJ01 -22125.531228  34112.182364  -6462.089170    351.469694
PE11  22031.660255   3636.994693  19426.376855    761.925255
PE12  22412.319260  18537.111728   5488.526798    580.221640
*  2012 11 24 12 35  0.00000000
PJ01 -21899.409567  34061.699494  -7045.386685    351.469685
PE11  22433.190461   4050.599341  18877.386390    762.041313
PE12  22525.664413  18638.980050   4608.815611    580.247146
*  2012 11 24 12 40  0.00000000
PJ01 -21674.907678  34000.060892  -7625.043523    351.469690
PE11  22832.054123   4443.025480  18302.277647    762.157385
PE12  22622.609395  18719.376942   3722.727360    580.272663
*  2012 11 24 12 45  0.00000000
PJ01 -21452.467680  33927.263761  -8200.740970    351.469654
PE11  23226.958892   4814.062918  17701.846333    762.273411
PE12  22702.141252  18778.969295   2831.488060    580.298182
*  2012 11 24 12 50  0.00000000
PJ01 -21232.532440  33843.325498  -8772.159471    351.469630
PE11  23616.608478   5163.577465  17076.923196    762.389488
PE12  22763.293358  18818.486164   1936.330866    580.323691
*  2012 11 24 12 55  0.00000000
PJ01 -21015.544690  33748.283844  -9338.978840    351.469657
PE11  23999.707153   5491.511128  16428.372876    762.505553
PE12  22805.148949  18838.716007   1038.494369    580.349198
*  2012 11 24 13  0  0.00000000
PJ01 -20801.946115  33642.197004  -9900.878475    351.469617
PE11  24374.964255   5797.882031  15757.092712    762.621595
PE12  22826.844493  18840.503709    139.220891    580.374726
*  2012 11 24 13  5  0.00000000
PJ01 -20592.176458  33525.143709 -10457.537596    351.469584
PE11  24741.098685   6082.784095  15064.011494    762.737660
PE12  22827.572870  18824.747426   -760.245257    580.400238
*  2012 11 24 13 10  0.00000000
PJ01 -20386.672593  33397.223254 -11008.635472    351.469584
PE11  25096.843369   6346.386420  14350.088186    762.853732
PE12  22806.586359  18792.395236  -1658.659482    580.425726
*  2012 11 24 13 15  0.00000000
PJ01 -20185.867611  33258.555478 -11553.851677    351.469594
PE11  25440.949678   6588.932439  13616.310586    762.969789
PE12  22763.199426  18744.441621  -2554.778648    580.451254
EOF
